[
    {
        "Altitude(m)": 607886.6721267658,
        "Argument of Periapsis(deg)": 0.0,
        "Eccentricity": 0.0,
        "Inclination(deg)": 60.0,
        "Latitude(deg)": 40.99839131844917,
        "Longitude(deg)": -120.02699949699581,
        "Mean Anomaly(deg)": 49.09089999999999,
        "RAAN(deg)": 310.0,
        "Satellite Name": "Test1 1367",
        "Satellite Number": 1367,
        "Semi-Major Axis(m)": 6980739.136638005,
        "Time(s)": 0
    },
    {
        "Altitude(m)": 607987.5860481357,
        "Argument of Periapsis(deg)": 0.00010418945913296404,
        "Eccentricity": 0.0,
        "Inclination(deg)": 60.0,
        "Latitude(deg)": 41.46348118817429,
        "Longitude(deg)": -119.52277168425194,
        "Mean Anomaly(deg)": 49.711006145461845,
        "RAAN(deg)": 309.99957995086027,
        "Satellite Name": "Test1 1367",
        "Satellite Number": 1367,
        "Semi-Major Axis(m)": 6980739.136638005,
        "Time(s)": 10
    }
]